#dV2023  1 22 22  0  0.00000000    1682       CTS   FIT  GFZ
## 2246  79200.00000000    30.00000000 59966 0.9166666666667
+    1   L64  0  0  0  0  0  0  0  0  0  0  0  0  0  0  0  0
+          0  0  0  0  0  0  0  0  0  0  0  0  0  0  0  0  0
+          0  0  0  0  0  0  0  0  0  0  0  0  0  0  0  0  0
+          0  0  0  0  0  0  0  0  0  0  0  0  0  0  0  0  0
+          0  0  0  0  0  0  0  0  0  0  0  0  0  0  0  0  0
++         0  0  0  0  0  0  0  0  0  0  0  0  0  0  0  0  0
++         0  0  0  0  0  0  0  0  0  0  0  0  0  0  0  0  0
++         0  0  0  0  0  0  0  0  0  0  0  0  0  0  0  0  0
++         0  0  0  0  0  0  0  0  0  0  0  0  0  0  0  0  0
++         0  0  0  0  0  0  0  0  0  0  0  0  0  0  0  0  0
%c L  cc GPS ccc cccc cccc cccc cccc ccccc ccccc ccccc ccccc
%c cc cc ccc ccc cccc cccc cccc cccc ccccc ccccc ccccc ccccc
%f  0.0000000  0.000000000  0.00000000000  0.000000000000000
%f  0.0000000  0.000000000  0.00000000000  0.000000000000000
%i    0    0    0    0      0      0      0      0         0
%i    0    0    0    0      0      0      0      0         0
/* CCCCCCCCCCCCCCCCCCCCCCCCCCCCCCCCCCCCCCCCCCCCCCCCCCCCCCCCCCCCCCCCCCCCCCCCCCCCC
/* C                             GFZ RSO-ORBIT                                 C
/* C DOI: https://doi.org/10.5880/GFZ_ORBIT/RSO/L64_G_v02                      C
/* C                                                                           C
/* C DORIS        RMS: not applicable                                          C
/* C GNSS-E Code  RMS: not applicable                                          C
/* C GNSS-E Phase RMS: not applicable                                          C
/* C GNSS-G Code  RMS:  49.840 [cm]   Obs.acc.:     13654 Obs.eli.:      1167  C
/* C GNSS-G Phase RMS:   4.430 [mm]   Obs.acc.:     13654 Obs.eli.:      1167  C
/* C SLR          RMS:   1.373 [cm]   Obs.acc.:        36 Obs.eli.:         0  C
/* C                                                                           C
/* CCCCCCCCCCCCCCCCCCCCCCCCCCCCCCCCCCCCCCCCCCCCCCCCCCCCCCCCCCCCCCCCCCCCCCCCCCCCC
*  2023  1 22 23 42  0.00000000
PL64  -1990.884552  -5701.330763  -3291.213748  15009.392994
VL64 -14727.674227 -33458.490866  66781.567871 999999.999999
*  2023  1 22 23 42 30.00000000
PL64  -2034.181645  -5798.463385  -3089.086642  15009.852335
VL64 -14132.815506 -31291.050689  67957.447129 999999.999999
*  2023  1 22 23 43  0.00000000
PL64  -2075.656274  -5889.045079  -2883.544050  15010.311775
VL64 -13512.786523 -29091.623364  69058.344511 999999.999999
*  2023  1 22 23 43 30.00000000
PL64  -2115.233738  -5972.983662  -2674.812803  15010.771170
VL64 -12868.133250 -26862.733755  70083.016415 999999.999999
*  2023  1 22 23 44  0.00000000
PL64  -2152.841033  -6050.194575  -2463.123339  15011.230520
VL64 -12199.440614 -24606.939365  71030.303700 999999.999999
*  2023  1 22 23 44 30.00000000
PL64  -2188.406965  -6120.600979  -2248.709442  15011.690028
VL64 -11507.332046 -22326.827519  71899.132866 999999.999999
*  2023  1 22 23 45  0.00000000
PL64  -2221.862269  -6184.133837  -2031.807989  15012.149600
VL64 -10792.469085 -20025.012587  72688.517691 999999.999999
*  2023  1 22 23 45 30.00000000
PL64  -2253.139723  -6240.731989  -1812.658680  15012.609307
VL64 -10055.550800 -17704.132787  73397.560975 999999.999999
*  2023  1 22 23 46  0.00000000
PL64  -2282.174253  -6290.342226  -1591.503774  15013.069134
VL64  -9297.313053 -15366.846711  74025.455989 999999.999999
*  2023  1 22 23 46 30.00000000
PL64  -2308.903052  -6332.919338  -1368.587811  15013.528863
VL64  -8518.527638 -13015.829876  74571.487597 999999.999999
*  2023  1 22 23 47  0.00000000
PL64  -2333.265677  -6368.426164  -1144.157338  15013.988592
VL64  -7720.001396 -10653.771301  75035.033216 999999.999999
*  2023  1 22 23 47 30.00000000
PL64  -2355.204159  -6396.833623   -918.460630  15014.448281
VL64  -6902.575334  -8283.370028  75415.563597 999999.999999
*  2023  1 22 23 48  0.00000000
PL64  -2374.663103  -6418.120747   -691.747410  15014.907944
VL64  -6067.123713  -5907.331667  75712.643414 999999.999999
*  2023  1 22 23 48 30.00000000
PL64  -2391.589782  -6432.274685   -464.268564  15015.367584
VL64  -5214.553004  -3528.365103  75925.931747 999999.999999
*  2023  1 22 23 49  0.00000000
PL64  -2405.934238  -6439.290718   -236.275860  15015.827158
VL64  -4345.800710  -1149.179244  76055.182533 999999.999999
*  2023  1 22 23 49 30.00000000
PL64  -2417.649371  -6439.172247     -8.021661  15016.286751
VL64  -3461.834225   1227.520247  76100.244853 999999.999999
*  2023  1 22 23 50  0.00000000
PL64  -2426.691025  -6431.930782    220.241362  15016.746373
VL64  -2563.649812   3599.034139  76061.063151 999999.999999
*  2023  1 22 23 50 30.00000000
PL64  -2433.018075  -6417.585918    448.260511  15017.206023
VL64  -1652.271449   5962.672926  75937.677558 999999.999999
*  2023  1 22 23 51  0.00000000
PL64  -2436.592509  -6396.165297    675.783356  15017.665555
VL64   -728.749479   8315.760374  75730.223980 999999.999999
*  2023  1 22 23 51 30.00000000
PL64  -2437.379503  -6367.704567    902.558015  15018.125038
VL64    205.840698  10655.636978  75438.933760 999999.999999
*  2023  1 22 23 52  0.00000000
PL64  -2435.347495  -6332.247326   1128.333445  15018.584512
VL64   1150.399871  12979.663120  75064.133276 999999.999999
*  2023  1 22 23 52 30.00000000
PL64  -2430.468255  -6289.845056   1352.859723  15019.044020
VL64   2103.806337  15285.222269  74606.243681 999999.999999
*  2023  1 22 23 53  0.00000000
PL64  -2422.716952  -6240.557051   1575.888330  15019.503495
VL64   3064.917432  17569.724439  74065.780413 999999.999999
*  2023  1 22 23 53 30.00000000
PL64  -2412.072208  -6184.450328   1797.172437  15019.962712
VL64   4032.571182  19830.609411  73443.352153 999999.999999
*  2023  1 22 23 54  0.00000000
PL64  -2398.516161  -6121.599540   2016.467176  15020.421956
VL64   5005.587801  22065.349437  72739.659879 999999.999999
*  2023  1 22 23 54 30.00000000
PL64  -2382.034513  -6052.086870   2233.529922  15020.881463
VL64   5982.771218  24271.452166  71955.496248 999999.999999
*  2023  1 22 23 55  0.00000000
PL64  -2362.616577  -5976.001920   2448.120563  15021.341034
VL64   6962.910716  26446.463905  71091.744693 999999.999999
*  2023  1 22 23 55 30.00000000
PL64  -2340.255316  -5893.441591   2660.001772  15021.800631
VL64   7944.782595  28587.972912  70149.377982 999999.999999
*  2023  1 22 23 56  0.00000000
PL64  -2314.947384  -5804.509953   2868.939273  15022.260311
VL64   8927.151659  30693.612183  69129.456417 999999.999999
*  2023  1 22 23 56 30.00000000
PL64  -2286.693154  -5709.318109   3074.702099  15022.720381
VL64   9908.772610  32761.061727  68033.126388 999999.999999
*  2023  1 22 23 57  0.00000000
PL64  -2255.496750  -5607.984045   3277.062851  15023.180336
VL64  10888.391720  34788.051035  66861.619190 999999.999999
*  2023  1 22 23 57 30.00000000
PL64  -2221.366066  -5500.632483   3475.797949  15023.640188
VL64  11864.748671  36772.361713  65616.249627 999999.999999
*  2023  1 22 23 58  0.00000000
PL64  -2184.312785  -5387.394719   3670.687881  15024.099899
VL64  12836.578401  38711.830300  64298.414297 999999.999999
*  2023  1 22 23 58 30.00000000
PL64  -2144.352391  -5268.408451   3861.517443  15024.559563
VL64  13802.612715  40604.350849  62909.589014 999999.999999
*  2023  1 22 23 59  0.00000000
PL64  -2101.504175  -5143.817611   4048.075975  15025.019275
VL64  14761.581351  42447.876285  61451.326548 999999.999999
*  2023  1 22 23 59 30.00000000
PL64  -2055.791239  -5013.772178   4230.157591  15025.478769
VL64  15712.213482  44240.420058  59925.255688 999999.999999
*  2023  1 23  0  0  0.00000000
PL64  -2007.240500  -4878.427998   4407.561402  15025.938147
VL64  16653.239833  45980.058806  58333.079627 999999.999999
*  2023  1 23  0  0 30.00000000
PL64  -1955.882672  -4737.946590   4580.091736  15026.397660
VL64  17583.394333  47664.934567  56676.573512 999999.999999
*  2023  1 23  0  1  0.00000000
PL64  -1901.752267  -4592.494947   4747.558355  15026.857447
VL64  18501.415273  49293.256203  54957.582475 999999.999999
*  2023  1 23  0  1 30.00000000
PL64  -1844.887571  -4442.245332   4909.776658  15027.317219
VL64  19406.046661  50863.301348  53178.020843 999999.999999
*  2023  1 23  0  2  0.00000000
PL64  -1785.330625  -4287.375067   5066.567889  15027.776927
VL64  20296.040636  52373.420300  51339.870006 999999.999999
*  2023  1 23  0  2 30.00000000
PL64  -1723.127202  -4128.066313   5217.759331  15028.236342
VL64  21170.159752  53822.038296  49445.173381 999999.999999
*  2023  1 23  0  3  0.00000000
PL64  -1658.326767  -3964.505841   5363.184484  15028.695900
VL64  22027.178445  55207.655020  47496.032968 999999.999999
*  2023  1 23  0  3 30.00000000
PL64  -1590.982444  -3796.884812   5502.683242  15029.155432
VL64  22865.884635  56528.845275  45494.608113 999999.999999
*  2023  1 23  0  4  0.00000000
PL64  -1521.150970  -3625.398547   5636.102061  15029.615094
VL64  23685.081237  57784.260962  43443.113272 999999.999999
*  2023  1 23  0  4 30.00000000
PL64  -1448.892648  -3450.246294   5763.294117  15030.074809
VL64  24483.587369  58972.632174  41343.815138 999999.999999
*  2023  1 23  0  5  0.00000000
PL64  -1374.271300  -3271.630992   5884.119463  15030.534761
VL64  25260.239916  60092.768050  39199.030290 999999.999999
*  2023  1 23  0  5 30.00000000
PL64  -1297.354206  -3089.759034   5998.445174  15030.994921
VL64  26013.895475  61143.558124  37011.122246 999999.999999
*  2023  1 23  0  6  0.00000000
PL64  -1218.212047  -2904.840021   6106.145479  15031.454786
VL64  26743.431631  62123.972711  34782.497814 999999.999999
*  2023  1 23  0  6 30.00000000
PL64  -1136.918837  -2717.086525   6207.101891  15031.914480
VL64  27447.747547  63033.062240  32515.604988 999999.999999
*  2023  1 23  0  7  0.00000000
PL64  -1053.551861  -2526.713844   6301.203328  15032.374237
VL64  28125.765272  63869.957946  30212.932523 999999.999999
EOF
